<?xml version="1.0" encoding="UTF-8"?>
<kml xmlns="http://www.opengis.net/kml/2.2"><Document><name>Accuracy sample points</name>
<Style id="p"><IconStyle><scale>0.9</scale><Icon><href>http://maps.google.com/mapfiles/kml/shapes/placemark_circle.png</href></Icon></IconStyle><LabelStyle><scale>0.9</scale></LabelStyle></Style>
<Placemark><name>1</name><styleUrl>#p</styleUrl><Point><coordinates>74.846715,33.943166,0</coordinates></Point></Placemark>
<Placemark><name>2</name><styleUrl>#p</styleUrl><Point><coordinates>74.849306,33.946687,0</coordinates></Point></Placemark>
<Placemark><name>3</name><styleUrl>#p</styleUrl><Point><coordinates>74.845735,33.946142,0</coordinates></Point></Placemark>
<Placemark><name>4</name><styleUrl>#p</styleUrl><Point><coordinates>74.982087,33.957871,0</coordinates></Point></Placemark>
<Placemark><name>5</name><styleUrl>#p</styleUrl><Point><coordinates>74.848677,33.935052,0</coordinates></Point></Placemark>
<Placemark><name>6</name><styleUrl>#p</styleUrl><Point><coordinates>74.861985,33.935879,0</coordinates></Point></Placemark>
<Placemark><name>7</name><styleUrl>#p</styleUrl><Point><coordinates>74.624636,34.022507,0</coordinates></Point></Placemark>
<Placemark><name>8</name><styleUrl>#p</styleUrl><Point><coordinates>74.753383,33.998481,0</coordinates></Point></Placemark>
<Placemark><name>9</name><styleUrl>#p</styleUrl><Point><coordinates>74.648674,34.024472,0</coordinates></Point></Placemark>
<Placemark><name>10</name><styleUrl>#p</styleUrl><Point><coordinates>74.848652,33.949121,0</coordinates></Point></Placemark>
<Placemark><name>11</name><styleUrl>#p</styleUrl><Point><coordinates>74.726695,33.912384,0</coordinates></Point></Placemark>
<Placemark><name>12</name><styleUrl>#p</styleUrl><Point><coordinates>74.641503,34.029592,0</coordinates></Point></Placemark>
<Placemark><name>13</name><styleUrl>#p</styleUrl><Point><coordinates>74.670452,34.022638,0</coordinates></Point></Placemark>
<Placemark><name>14</name><styleUrl>#p</styleUrl><Point><coordinates>74.771221,34.009068,0</coordinates></Point></Placemark>
<Placemark><name>15</name><styleUrl>#p</styleUrl><Point><coordinates>74.983077,33.879135,0</coordinates></Point></Placemark>
<Placemark><name>16</name><styleUrl>#p</styleUrl><Point><coordinates>74.674373,34.016967,0</coordinates></Point></Placemark>
<Placemark><name>17</name><styleUrl>#p</styleUrl><Point><coordinates>74.681885,34.006705,0</coordinates></Point></Placemark>
<Placemark><name>18</name><styleUrl>#p</styleUrl><Point><coordinates>74.619424,34.025467,0</coordinates></Point></Placemark>
<Placemark><name>19</name><styleUrl>#p</styleUrl><Point><coordinates>74.86101,33.936149,0</coordinates></Point></Placemark>
<Placemark><name>20</name><styleUrl>#p</styleUrl><Point><coordinates>74.963575,33.96869,0</coordinates></Point></Placemark>
<Placemark><name>21</name><styleUrl>#p</styleUrl><Point><coordinates>74.652689,33.996074,0</coordinates></Point></Placemark>
<Placemark><name>22</name><styleUrl>#p</styleUrl><Point><coordinates>75.109217,33.838502,0</coordinates></Point></Placemark>
<Placemark><name>23</name><styleUrl>#p</styleUrl><Point><coordinates>74.64802,34.025282,0</coordinates></Point></Placemark>
<Placemark><name>24</name><styleUrl>#p</styleUrl><Point><coordinates>75.131237,33.819811,0</coordinates></Point></Placemark>
<Placemark><name>25</name><styleUrl>#p</styleUrl><Point><coordinates>74.844434,33.947493,0</coordinates></Point></Placemark>
<Placemark><name>26</name><styleUrl>#p</styleUrl><Point><coordinates>74.703502,33.956433,0</coordinates></Point></Placemark>
<Placemark><name>27</name><styleUrl>#p</styleUrl><Point><coordinates>74.612974,34.014624,0</coordinates></Point></Placemark>
<Placemark><name>28</name><styleUrl>#p</styleUrl><Point><coordinates>74.660094,34.012599,0</coordinates></Point></Placemark>
<Placemark><name>29</name><styleUrl>#p</styleUrl><Point><coordinates>74.681563,34.005892,0</coordinates></Point></Placemark>
<Placemark><name>30</name><styleUrl>#p</styleUrl><Point><coordinates>74.639555,34.029315,0</coordinates></Point></Placemark>
<Placemark><name>31</name><styleUrl>#p</styleUrl><Point><coordinates>74.620715,34.027365,0</coordinates></Point></Placemark>
<Placemark><name>32</name><styleUrl>#p</styleUrl><Point><coordinates>74.616558,34.012471,0</coordinates></Point></Placemark>
<Placemark><name>33</name><styleUrl>#p</styleUrl><Point><coordinates>74.653531,34.028544,0</coordinates></Point></Placemark>
<Placemark><name>34</name><styleUrl>#p</styleUrl><Point><coordinates>74.577811,34.094866,0</coordinates></Point></Placemark>
<Placemark><name>35</name><styleUrl>#p</styleUrl><Point><coordinates>74.848013,33.943439,0</coordinates></Point></Placemark>
<Placemark><name>36</name><styleUrl>#p</styleUrl><Point><coordinates>74.709152,34.013536,0</coordinates></Point></Placemark>
<Placemark><name>37</name><styleUrl>#p</styleUrl><Point><coordinates>74.665323,34.004767,0</coordinates></Point></Placemark>
<Placemark><name>38</name><styleUrl>#p</styleUrl><Point><coordinates>74.65812,34.018816,0</coordinates></Point></Placemark>
<Placemark><name>39</name><styleUrl>#p</styleUrl><Point><coordinates>74.791413,33.989352,0</coordinates></Point></Placemark>
<Placemark><name>40</name><styleUrl>#p</styleUrl><Point><coordinates>74.69317,34.030543,0</coordinates></Point></Placemark>
<Placemark><name>41</name><styleUrl>#p</styleUrl><Point><coordinates>74.641177,34.029861,0</coordinates></Point></Placemark>
<Placemark><name>42</name><styleUrl>#p</styleUrl><Point><coordinates>74.829874,33.922581,0</coordinates></Point></Placemark>
<Placemark><name>43</name><styleUrl>#p</styleUrl><Point><coordinates>74.791266,33.916569,0</coordinates></Point></Placemark>
<Placemark><name>44</name><styleUrl>#p</styleUrl><Point><coordinates>74.753679,34.008222,0</coordinates></Point></Placemark>
<Placemark><name>45</name><styleUrl>#p</styleUrl><Point><coordinates>74.846711,33.945331,0</coordinates></Point></Placemark>
<Placemark><name>46</name><styleUrl>#p</styleUrl><Point><coordinates>74.636581,34.04067,0</coordinates></Point></Placemark>
<Placemark><name>47</name><styleUrl>#p</styleUrl><Point><coordinates>74.848335,33.944521,0</coordinates></Point></Placemark>
<Placemark><name>48</name><styleUrl>#p</styleUrl><Point><coordinates>74.790628,33.911968,0</coordinates></Point></Placemark>
<Placemark><name>49</name><styleUrl>#p</styleUrl><Point><coordinates>74.670755,34.028321,0</coordinates></Point></Placemark>
<Placemark><name>50</name><styleUrl>#p</styleUrl><Point><coordinates>74.841524,33.940995,0</coordinates></Point></Placemark>
<Placemark><name>51</name><styleUrl>#p</styleUrl><Point><coordinates>74.759209,34.006069,0</coordinates></Point></Placemark>
<Placemark><name>52</name><styleUrl>#p</styleUrl><Point><coordinates>74.621996,34.031698,0</coordinates></Point></Placemark>
<Placemark><name>53</name><styleUrl>#p</styleUrl><Point><coordinates>74.810841,33.870062,0</coordinates></Point></Placemark>
<Placemark><name>54</name><styleUrl>#p</styleUrl><Point><coordinates>74.862678,33.908282,0</coordinates></Point></Placemark>
<Placemark><name>55</name><styleUrl>#p</styleUrl><Point><coordinates>74.850608,33.944524,0</coordinates></Point></Placemark>
<Placemark><name>56</name><styleUrl>#p</styleUrl><Point><coordinates>74.764774,33.990657,0</coordinates></Point></Placemark>
<Placemark><name>57</name><styleUrl>#p</styleUrl><Point><coordinates>74.815726,33.86087,0</coordinates></Point></Placemark>
<Placemark><name>58</name><styleUrl>#p</styleUrl><Point><coordinates>74.634678,34.029842,0</coordinates></Point></Placemark>
<Placemark><name>59</name><styleUrl>#p</styleUrl><Point><coordinates>74.708825,34.014077,0</coordinates></Point></Placemark>
<Placemark><name>60</name><styleUrl>#p</styleUrl><Point><coordinates>74.605048,34.042197,0</coordinates></Point></Placemark>
<Placemark><name>61</name><styleUrl>#p</styleUrl><Point><coordinates>74.954536,33.868035,0</coordinates></Point></Placemark>
<Placemark><name>62</name><styleUrl>#p</styleUrl><Point><coordinates>74.84833,33.947768,0</coordinates></Point></Placemark>
<Placemark><name>63</name><styleUrl>#p</styleUrl><Point><coordinates>74.844758,33.948034,0</coordinates></Point></Placemark>
<Placemark><name>64</name><styleUrl>#p</styleUrl><Point><coordinates>74.850603,33.9475,0</coordinates></Point></Placemark>
<Placemark><name>65</name><styleUrl>#p</styleUrl><Point><coordinates>74.654502,34.029629,0</coordinates></Point></Placemark>
<Placemark><name>66</name><styleUrl>#p</styleUrl><Point><coordinates>74.691284,34.012952,0</coordinates></Point></Placemark>
<Placemark><name>67</name><styleUrl>#p</styleUrl><Point><coordinates>74.983077,33.877512,0</coordinates></Point></Placemark>
<Placemark><name>68</name><styleUrl>#p</styleUrl><Point><coordinates>75.049927,33.91863,0</coordinates></Point></Placemark>
<Placemark><name>69</name><styleUrl>#p</styleUrl><Point><coordinates>74.769271,34.009335,0</coordinates></Point></Placemark>
<Placemark><name>70</name><styleUrl>#p</styleUrl><Point><coordinates>74.611013,34.017053,0</coordinates></Point></Placemark>
<Placemark><name>71</name><styleUrl>#p</styleUrl><Point><coordinates>74.683827,34.008604,0</coordinates></Point></Placemark>
<Placemark><name>72</name><styleUrl>#p</styleUrl><Point><coordinates>74.645062,34.03339,0</coordinates></Point></Placemark>
<Placemark><name>73</name><styleUrl>#p</styleUrl><Point><coordinates>74.847057,33.933156,0</coordinates></Point></Placemark>
<Placemark><name>74</name><styleUrl>#p</styleUrl><Point><coordinates>75.100193,33.885319,0</coordinates></Point></Placemark>
<Placemark><name>75</name><styleUrl>#p</styleUrl><Point><coordinates>74.665328,34.003685,0</coordinates></Point></Placemark>
<Placemark><name>76</name><styleUrl>#p</styleUrl><Point><coordinates>74.627948,34.008177,0</coordinates></Point></Placemark>
<Placemark><name>77</name><styleUrl>#p</styleUrl><Point><coordinates>74.685716,34.025113,0</coordinates></Point></Placemark>
<Placemark><name>78</name><styleUrl>#p</styleUrl><Point><coordinates>74.973306,34.004408,0</coordinates></Point></Placemark>
<Placemark><name>79</name><styleUrl>#p</styleUrl><Point><coordinates>74.986321,33.880759,0</coordinates></Point></Placemark>
<Placemark><name>80</name><styleUrl>#p</styleUrl><Point><coordinates>74.838924,33.942886,0</coordinates></Point></Placemark>
<Placemark><name>81</name><styleUrl>#p</styleUrl><Point><coordinates>74.965575,33.841792,0</coordinates></Point></Placemark>
<Placemark><name>82</name><styleUrl>#p</styleUrl><Point><coordinates>74.684714,34.032416,0</coordinates></Point></Placemark>
<Placemark><name>83</name><styleUrl>#p</styleUrl><Point><coordinates>74.694238,34.004572,0</coordinates></Point></Placemark>
<Placemark><name>84</name><styleUrl>#p</styleUrl><Point><coordinates>74.986003,33.840173,0</coordinates></Point></Placemark>
<Placemark><name>85</name><styleUrl>#p</styleUrl><Point><coordinates>74.676971,34.017515,0</coordinates></Point></Placemark>
<Placemark><name>86</name><styleUrl>#p</styleUrl><Point><coordinates>74.669428,34.035352,0</coordinates></Point></Placemark>
<Placemark><name>87</name><styleUrl>#p</styleUrl><Point><coordinates>75.059989,33.920519,0</coordinates></Point></Placemark>
<Placemark><name>88</name><styleUrl>#p</styleUrl><Point><coordinates>74.771308,33.9766,0</coordinates></Point></Placemark>
<Placemark><name>89</name><styleUrl>#p</styleUrl><Point><coordinates>74.806336,33.997223,0</coordinates></Point></Placemark>
<Placemark><name>90</name><styleUrl>#p</styleUrl><Point><coordinates>74.659097,34.018278,0</coordinates></Point></Placemark>
<Placemark><name>91</name><styleUrl>#p</styleUrl><Point><coordinates>74.627877,34.024411,0</coordinates></Point></Placemark>
<Placemark><name>92</name><styleUrl>#p</styleUrl><Point><coordinates>74.756956,33.998488,0</coordinates></Point></Placemark>
<Placemark><name>93</name><styleUrl>#p</styleUrl><Point><coordinates>74.848664,33.942087,0</coordinates></Point></Placemark>
<Placemark><name>94</name><styleUrl>#p</styleUrl><Point><coordinates>74.675997,34.017241,0</coordinates></Point></Placemark>
<Placemark><name>95</name><styleUrl>#p</styleUrl><Point><coordinates>74.838604,33.94018,0</coordinates></Point></Placemark>
<Placemark><name>96</name><styleUrl>#p</styleUrl><Point><coordinates>74.841851,33.939643,0</coordinates></Point></Placemark>
<Placemark><name>97</name><styleUrl>#p</styleUrl><Point><coordinates>74.827104,33.847899,0</coordinates></Point></Placemark>
<Placemark><name>98</name><styleUrl>#p</styleUrl><Point><coordinates>74.611381,34.007585,0</coordinates></Point></Placemark>
<Placemark><name>99</name><styleUrl>#p</styleUrl><Point><coordinates>74.701145,33.980508,0</coordinates></Point></Placemark>
<Placemark><name>100</name><styleUrl>#p</styleUrl><Point><coordinates>74.829319,33.875501,0</coordinates></Point></Placemark>
<Placemark><name>101</name><styleUrl>#p</styleUrl><Point><coordinates>74.624294,34.026294,0</coordinates></Point></Placemark>
<Placemark><name>102</name><styleUrl>#p</styleUrl><Point><coordinates>75.010322,33.838821,0</coordinates></Point></Placemark>
<Placemark><name>103</name><styleUrl>#p</styleUrl><Point><coordinates>74.623983,34.023316,0</coordinates></Point></Placemark>
<Placemark><name>104</name><styleUrl>#p</styleUrl><Point><coordinates>74.986632,33.968695,0</coordinates></Point></Placemark>
<Placemark><name>105</name><styleUrl>#p</styleUrl><Point><coordinates>74.967505,33.880756,0</coordinates></Point></Placemark>
<Placemark><name>106</name><styleUrl>#p</styleUrl><Point><coordinates>74.585878,34.041051,0</coordinates></Point></Placemark>
<Placemark><name>107</name><styleUrl>#p</styleUrl><Point><coordinates>74.961293,33.988441,0</coordinates></Point></Placemark>
<Placemark><name>108</name><styleUrl>#p</styleUrl><Point><coordinates>74.671115,34.019393,0</coordinates></Point></Placemark>
<Placemark><name>109</name><styleUrl>#p</styleUrl><Point><coordinates>74.706824,34.028953,0</coordinates></Point></Placemark>
<Placemark><name>110</name><styleUrl>#p</styleUrl><Point><coordinates>74.672745,34.018045,0</coordinates></Point></Placemark>
<Placemark><name>111</name><styleUrl>#p</styleUrl><Point><coordinates>74.845409,33.946953,0</coordinates></Point></Placemark>
<Placemark><name>112</name><styleUrl>#p</styleUrl><Point><coordinates>74.850954,33.932349,0</coordinates></Point></Placemark>
<Placemark><name>113</name><styleUrl>#p</styleUrl><Point><coordinates>74.76477,33.99201,0</coordinates></Point></Placemark>
<Placemark><name>114</name><styleUrl>#p</styleUrl><Point><coordinates>74.794992,33.986653,0</coordinates></Point></Placemark>
<Placemark><name>115</name><styleUrl>#p</styleUrl><Point><coordinates>74.863648,33.910447,0</coordinates></Point></Placemark>
<Placemark><name>116</name><styleUrl>#p</styleUrl><Point><coordinates>74.978835,33.978164,0</coordinates></Point></Placemark>
<Placemark><name>117</name><styleUrl>#p</styleUrl><Point><coordinates>74.843785,33.947221,0</coordinates></Point></Placemark>
<Placemark><name>118</name><styleUrl>#p</styleUrl><Point><coordinates>74.66042,34.012329,0</coordinates></Point></Placemark>
<Placemark><name>119</name><styleUrl>#p</styleUrl><Point><coordinates>74.686325,34.036208,0</coordinates></Point></Placemark>
<Placemark><name>120</name><styleUrl>#p</styleUrl><Point><coordinates>74.619746,34.026009,0</coordinates></Point></Placemark>
</Document></kml>