<?xml version="1.0" encoding="UTF-8"?>
<kml xmlns="http://www.opengis.net/kml/2.2"><Document><name>Accuracy sample points, second draw</name>
<Style id="p"><IconStyle><scale>0.9</scale><Icon><href>http://maps.google.com/mapfiles/kml/shapes/placemark_circle.png</href></Icon></IconStyle><LabelStyle><scale>0.9</scale></LabelStyle></Style>
<Placemark><name>121</name><styleUrl>#p</styleUrl><Point><coordinates>74.845412,33.9456,0</coordinates></Point></Placemark>
<Placemark><name>122</name><styleUrl>#p</styleUrl><Point><coordinates>74.94319,33.857748,0</coordinates></Point></Placemark>
<Placemark><name>123</name><styleUrl>#p</styleUrl><Point><coordinates>74.65353,34.028815,0</coordinates></Point></Placemark>
<Placemark><name>124</name><styleUrl>#p</styleUrl><Point><coordinates>74.957773,33.881294,0</coordinates></Point></Placemark>
<Placemark><name>125</name><styleUrl>#p</styleUrl><Point><coordinates>74.683508,34.00698,0</coordinates></Point></Placemark>
<Placemark><name>126</name><styleUrl>#p</styleUrl><Point><coordinates>74.847352,33.949661,0</coordinates></Point></Placemark>
<Placemark><name>127</name><styleUrl>#p</styleUrl><Point><coordinates>74.611338,34.017054,0</coordinates></Point></Placemark>
<Placemark><name>128</name><styleUrl>#p</styleUrl><Point><coordinates>74.862941,33.946432,0</coordinates></Point></Placemark>
<Placemark><name>129</name><styleUrl>#p</styleUrl><Point><coordinates>74.862017,33.915857,0</coordinates></Point></Placemark>
<Placemark><name>130</name><styleUrl>#p</styleUrl><Point><coordinates>74.84607,33.940731,0</coordinates></Point></Placemark>
<Placemark><name>131</name><styleUrl>#p</styleUrl><Point><coordinates>74.848985,33.944522,0</coordinates></Point></Placemark>
<Placemark><name>132</name><styleUrl>#p</styleUrl><Point><coordinates>74.972987,33.987362,0</coordinates></Point></Placemark>
<Placemark><name>133</name><styleUrl>#p</styleUrl><Point><coordinates>74.778114,33.982294,0</coordinates></Point></Placemark>
<Placemark><name>134</name><styleUrl>#p</styleUrl><Point><coordinates>74.629269,34.003311,0</coordinates></Point></Placemark>
<Placemark><name>135</name><styleUrl>#p</styleUrl><Point><coordinates>74.611703,34.008397,0</coordinates></Point></Placemark>
<Placemark><name>136</name><styleUrl>#p</styleUrl><Point><coordinates>74.986645,33.880218,0</coordinates></Point></Placemark>
<Placemark><name>137</name><styleUrl>#p</styleUrl><Point><coordinates>74.672095,34.018043,0</coordinates></Point></Placemark>
<Placemark><name>138</name><styleUrl>#p</styleUrl><Point><coordinates>74.842493,33.943973,0</coordinates></Point></Placemark>
<Placemark><name>139</name><styleUrl>#p</styleUrl><Point><coordinates>74.643087,34.039337,0</coordinates></Point></Placemark>
<Placemark><name>140</name><styleUrl>#p</styleUrl><Point><coordinates>74.645064,34.032849,0</coordinates></Point></Placemark>
<Placemark><name>141</name><styleUrl>#p</styleUrl><Point><coordinates>74.841198,33.942077,0</coordinates></Point></Placemark>
<Placemark><name>142</name><styleUrl>#p</styleUrl><Point><coordinates>74.646494,34.001467,0</coordinates></Point></Placemark>
<Placemark><name>143</name><styleUrl>#p</styleUrl><Point><coordinates>74.962005,33.847744,0</coordinates></Point></Placemark>
<Placemark><name>144</name><styleUrl>#p</styleUrl><Point><coordinates>74.846729,33.93532,0</coordinates></Point></Placemark>
<Placemark><name>145</name><styleUrl>#p</styleUrl><Point><coordinates>74.920674,34.00682,0</coordinates></Point></Placemark>
<Placemark><name>146</name><styleUrl>#p</styleUrl><Point><coordinates>75.100141,33.840674,0</coordinates></Point></Placemark>
<Placemark><name>147</name><styleUrl>#p</styleUrl><Point><coordinates>74.671116,34.019122,0</coordinates></Point></Placemark>
<Placemark><name>148</name><styleUrl>#p</styleUrl><Point><coordinates>74.62366,34.022774,0</coordinates></Point></Placemark>
<Placemark><name>149</name><styleUrl>#p</styleUrl><Point><coordinates>74.969464,33.847746,0</coordinates></Point></Placemark>
<Placemark><name>150</name><styleUrl>#p</styleUrl><Point><coordinates>74.6455,34.006335,0</coordinates></Point></Placemark>
<Placemark><name>151</name><styleUrl>#p</styleUrl><Point><coordinates>74.646693,34.032042,0</coordinates></Point></Placemark>
<Placemark><name>152</name><styleUrl>#p</styleUrl><Point><coordinates>74.974285,33.988985,0</coordinates></Point></Placemark>
<Placemark><name>153</name><styleUrl>#p</styleUrl><Point><coordinates>74.850933,33.944525,0</coordinates></Point></Placemark>
<Placemark><name>154</name><styleUrl>#p</styleUrl><Point><coordinates>74.646368,34.032041,0</coordinates></Point></Placemark>
<Placemark><name>155</name><styleUrl>#p</styleUrl><Point><coordinates>74.850932,33.945066,0</coordinates></Point></Placemark>
<Placemark><name>156</name><styleUrl>#p</styleUrl><Point><coordinates>74.650776,33.98714,0</coordinates></Point></Placemark>
<Placemark><name>157</name><styleUrl>#p</styleUrl><Point><coordinates>74.736438,33.910241,0</coordinates></Point></Placemark>
<Placemark><name>158</name><styleUrl>#p</styleUrl><Point><coordinates>74.844762,33.94587,0</coordinates></Point></Placemark>
<Placemark><name>159</name><styleUrl>#p</styleUrl><Point><coordinates>75.068749,33.916456,0</coordinates></Point></Placemark>
<Placemark><name>160</name><styleUrl>#p</styleUrl><Point><coordinates>74.775163,33.992571,0</coordinates></Point></Placemark>
<Placemark><name>161</name><styleUrl>#p</styleUrl><Point><coordinates>74.977533,33.991151,0</coordinates></Point></Placemark>
<Placemark><name>162</name><styleUrl>#p</styleUrl><Point><coordinates>74.556948,34.104262,0</coordinates></Point></Placemark>
<Placemark><name>163</name><styleUrl>#p</styleUrl><Point><coordinates>74.950899,33.988708,0</coordinates></Point></Placemark>
<Placemark><name>164</name><styleUrl>#p</styleUrl><Point><coordinates>74.68952,33.96181,0</coordinates></Point></Placemark>
<Placemark><name>165</name><styleUrl>#p</styleUrl><Point><coordinates>74.659259,34.058863,0</coordinates></Point></Placemark>
<Placemark><name>166</name><styleUrl>#p</styleUrl><Point><coordinates>74.84769,33.942356,0</coordinates></Point></Placemark>
<Placemark><name>167</name><styleUrl>#p</styleUrl><Point><coordinates>74.962005,33.847473,0</coordinates></Point></Placemark>
<Placemark><name>168</name><styleUrl>#p</styleUrl><Point><coordinates>74.666623,34.00477,0</coordinates></Point></Placemark>
<Placemark><name>169</name><styleUrl>#p</styleUrl><Point><coordinates>74.970424,33.884544,0</coordinates></Point></Placemark>
<Placemark><name>170</name><styleUrl>#p</styleUrl><Point><coordinates>74.846732,33.933426,0</coordinates></Point></Placemark>
<Placemark><name>171</name><styleUrl>#p</styleUrl><Point><coordinates>74.682201,34.009141,0</coordinates></Point></Placemark>
<Placemark><name>172</name><styleUrl>#p</styleUrl><Point><coordinates>74.765719,34.001482,0</coordinates></Point></Placemark>
<Placemark><name>173</name><styleUrl>#p</styleUrl><Point><coordinates>75.066448,33.879389,0</coordinates></Point></Placemark>
<Placemark><name>174</name><styleUrl>#p</styleUrl><Point><coordinates>74.849626,33.948852,0</coordinates></Point></Placemark>
<Placemark><name>175</name><styleUrl>#p</styleUrl><Point><coordinates>74.848004,33.948309,0</coordinates></Point></Placemark>
<Placemark><name>176</name><styleUrl>#p</styleUrl><Point><coordinates>74.985348,33.878594,0</coordinates></Point></Placemark>
<Placemark><name>177</name><styleUrl>#p</styleUrl><Point><coordinates>74.848001,33.950203,0</coordinates></Point></Placemark>
<Placemark><name>178</name><styleUrl>#p</styleUrl><Point><coordinates>74.84769,33.942085,0</coordinates></Point></Placemark>
<Placemark><name>179</name><styleUrl>#p</styleUrl><Point><coordinates>74.827941,33.915273,0</coordinates></Point></Placemark>
<Placemark><name>180</name><styleUrl>#p</styleUrl><Point><coordinates>75.101434,33.837968,0</coordinates></Point></Placemark>
<Placemark><name>181</name><styleUrl>#p</styleUrl><Point><coordinates>75.053503,33.928639,0</coordinates></Point></Placemark>
<Placemark><name>182</name><styleUrl>#p</styleUrl><Point><coordinates>74.849977,33.933971,0</coordinates></Point></Placemark>
<Placemark><name>183</name><styleUrl>#p</styleUrl><Point><coordinates>74.693129,33.951538,0</coordinates></Point></Placemark>
<Placemark><name>184</name><styleUrl>#p</styleUrl><Point><coordinates>74.978861,33.874535,0</coordinates></Point></Placemark>
<Placemark><name>185</name><styleUrl>#p</styleUrl><Point><coordinates>74.792864,33.926583,0</coordinates></Point></Placemark>
<Placemark><name>186</name><styleUrl>#p</styleUrl><Point><coordinates>74.647338,34.033126,0</coordinates></Point></Placemark>
<Placemark><name>187</name><styleUrl>#p</styleUrl><Point><coordinates>74.86592,33.910179,0</coordinates></Point></Placemark>
<Placemark><name>188</name><styleUrl>#p</styleUrl><Point><coordinates>74.85093,33.946148,0</coordinates></Point></Placemark>
<Placemark><name>189</name><styleUrl>#p</styleUrl><Point><coordinates>74.639234,34.028232,0</coordinates></Point></Placemark>
<Placemark><name>190</name><styleUrl>#p</styleUrl><Point><coordinates>74.744809,33.932445,0</coordinates></Point></Placemark>
<Placemark><name>191</name><styleUrl>#p</styleUrl><Point><coordinates>74.754684,33.997943,0</coordinates></Point></Placemark>
<Placemark><name>192</name><styleUrl>#p</styleUrl><Point><coordinates>74.846395,33.94019,0</coordinates></Point></Placemark>
<Placemark><name>193</name><styleUrl>#p</styleUrl><Point><coordinates>74.933372,33.972195,0</coordinates></Point></Placemark>
<Placemark><name>194</name><styleUrl>#p</styleUrl><Point><coordinates>74.844438,33.945599,0</coordinates></Point></Placemark>
<Placemark><name>195</name><styleUrl>#p</styleUrl><Point><coordinates>74.625287,34.022238,0</coordinates></Point></Placemark>
<Placemark><name>196</name><styleUrl>#p</styleUrl><Point><coordinates>74.665834,34.040212,0</coordinates></Point></Placemark>
<Placemark><name>197</name><styleUrl>#p</styleUrl><Point><coordinates>74.682862,34.005896,0</coordinates></Point></Placemark>
<Placemark><name>198</name><styleUrl>#p</styleUrl><Point><coordinates>74.65754,34.001499,0</coordinates></Point></Placemark>
<Placemark><name>199</name><styleUrl>#p</styleUrl><Point><coordinates>74.845092,33.942623,0</coordinates></Point></Placemark>
<Placemark><name>200</name><styleUrl>#p</styleUrl><Point><coordinates>74.851603,33.93262,0</coordinates></Point></Placemark>
<Placemark><name>201</name><styleUrl>#p</styleUrl><Point><coordinates>74.861334,33.93669,0</coordinates></Point></Placemark>
<Placemark><name>202</name><styleUrl>#p</styleUrl><Point><coordinates>74.847363,33.943438,0</coordinates></Point></Placemark>
<Placemark><name>203</name><styleUrl>#p</styleUrl><Point><coordinates>74.665972,34.005039,0</coordinates></Point></Placemark>
<Placemark><name>204</name><styleUrl>#p</styleUrl><Point><coordinates>75.093974,33.835268,0</coordinates></Point></Placemark>
<Placemark><name>205</name><styleUrl>#p</styleUrl><Point><coordinates>74.770328,33.978763,0</coordinates></Point></Placemark>
<Placemark><name>206</name><styleUrl>#p</styleUrl><Point><coordinates>74.80631,33.865726,0</coordinates></Point></Placemark>
<Placemark><name>207</name><styleUrl>#p</styleUrl><Point><coordinates>74.83893,33.939639,0</coordinates></Point></Placemark>
<Placemark><name>208</name><styleUrl>#p</styleUrl><Point><coordinates>74.862959,33.93561,0</coordinates></Point></Placemark>
<Placemark><name>209</name><styleUrl>#p</styleUrl><Point><coordinates>74.849958,33.944794,0</coordinates></Point></Placemark>
<Placemark><name>210</name><styleUrl>#p</styleUrl><Point><coordinates>74.929445,34.008178,0</coordinates></Point></Placemark>
<Placemark><name>211</name><styleUrl>#p</styleUrl><Point><coordinates>74.862635,33.935339,0</coordinates></Point></Placemark>
<Placemark><name>212</name><styleUrl>#p</styleUrl><Point><coordinates>74.775193,33.981207,0</coordinates></Point></Placemark>
<Placemark><name>213</name><styleUrl>#p</styleUrl><Point><coordinates>74.845728,33.949929,0</coordinates></Point></Placemark>
<Placemark><name>214</name><styleUrl>#p</styleUrl><Point><coordinates>74.848651,33.949392,0</coordinates></Point></Placemark>
<Placemark><name>215</name><styleUrl>#p</styleUrl><Point><coordinates>74.861984,33.93615,0</coordinates></Point></Placemark>
<Placemark><name>216</name><styleUrl>#p</styleUrl><Point><coordinates>74.802754,34.001006,0</coordinates></Point></Placemark>
<Placemark><name>217</name><styleUrl>#p</styleUrl><Point><coordinates>74.645194,34.001734,0</coordinates></Point></Placemark>
<Placemark><name>218</name><styleUrl>#p</styleUrl><Point><coordinates>74.847361,33.945061,0</coordinates></Point></Placemark>
<Placemark><name>219</name><styleUrl>#p</styleUrl><Point><coordinates>74.755008,33.998214,0</coordinates></Point></Placemark>
<Placemark><name>220</name><styleUrl>#p</styleUrl><Point><coordinates>74.853884,33.926941,0</coordinates></Point></Placemark>
<Placemark><name>221</name><styleUrl>#p</styleUrl><Point><coordinates>74.709144,34.015701,0</coordinates></Point></Placemark>
<Placemark><name>222</name><styleUrl>#p</styleUrl><Point><coordinates>74.839578,33.940181,0</coordinates></Point></Placemark>
<Placemark><name>223</name><styleUrl>#p</styleUrl><Point><coordinates>74.638907,34.028772,0</coordinates></Point></Placemark>
<Placemark><name>224</name><styleUrl>#p</styleUrl><Point><coordinates>74.709141,34.016513,0</coordinates></Point></Placemark>
<Placemark><name>225</name><styleUrl>#p</styleUrl><Point><coordinates>74.845417,33.942894,0</coordinates></Point></Placemark>
<Placemark><name>226</name><styleUrl>#p</styleUrl><Point><coordinates>74.681229,34.008326,0</coordinates></Point></Placemark>
<Placemark><name>227</name><styleUrl>#p</styleUrl><Point><coordinates>74.82737,33.876851,0</coordinates></Point></Placemark>
<Placemark><name>228</name><styleUrl>#p</styleUrl><Point><coordinates>74.838929,33.94018,0</coordinates></Point></Placemark>
<Placemark><name>229</name><styleUrl>#p</styleUrl><Point><coordinates>75.130251,33.810612,0</coordinates></Point></Placemark>
<Placemark><name>230</name><styleUrl>#p</styleUrl><Point><coordinates>74.776412,34.012054,0</coordinates></Point></Placemark>
<Placemark><name>231</name><styleUrl>#p</styleUrl><Point><coordinates>74.765398,33.999858,0</coordinates></Point></Placemark>
<Placemark><name>232</name><styleUrl>#p</styleUrl><Point><coordinates>74.850278,33.9475,0</coordinates></Point></Placemark>
<Placemark><name>233</name><styleUrl>#p</styleUrl><Point><coordinates>74.637231,34.040672,0</coordinates></Point></Placemark>
<Placemark><name>234</name><styleUrl>#p</styleUrl><Point><coordinates>74.849654,33.93343,0</coordinates></Point></Placemark>
<Placemark><name>235</name><styleUrl>#p</styleUrl><Point><coordinates>74.846063,33.944519,0</coordinates></Point></Placemark>
<Placemark><name>236</name><styleUrl>#p</styleUrl><Point><coordinates>74.918723,34.008983,0</coordinates></Point></Placemark>
<Placemark><name>237</name><styleUrl>#p</styleUrl><Point><coordinates>74.86166,33.935879,0</coordinates></Point></Placemark>
<Placemark><name>238</name><styleUrl>#p</styleUrl><Point><coordinates>74.659773,34.011786,0</coordinates></Point></Placemark>
<Placemark><name>239</name><styleUrl>#p</styleUrl><Point><coordinates>74.84444,33.944516,0</coordinates></Point></Placemark>
<Placemark><name>240</name><styleUrl>#p</styleUrl><Point><coordinates>74.653259,34.015556,0</coordinates></Point></Placemark>
</Document></kml>