<?xml version="1.0" encoding="UTF-8"?>
<kml xmlns="http://www.opengis.net/kml/2.2"><Document><name>Kiln-field edge recheck</name>
<Style id="p"><IconStyle><scale>0.9</scale><Icon><href>http://maps.google.com/mapfiles/kml/shapes/placemark_circle.png</href></Icon></IconStyle><LabelStyle><scale>0.9</scale></LabelStyle></Style>
<Placemark><name>81</name><styleUrl>#p</styleUrl><Point><coordinates>74.965575,33.841792,0</coordinates></Point></Placemark>
<Placemark><name>15</name><styleUrl>#p</styleUrl><Point><coordinates>74.983077,33.879135,0</coordinates></Point></Placemark>
<Placemark><name>79</name><styleUrl>#p</styleUrl><Point><coordinates>74.986321,33.880759,0</coordinates></Point></Placemark>
<Placemark><name>54</name><styleUrl>#p</styleUrl><Point><coordinates>74.862678,33.908282,0</coordinates></Point></Placemark>
<Placemark><name>159</name><styleUrl>#p</styleUrl><Point><coordinates>75.068749,33.916456,0</coordinates></Point></Placemark>
<Placemark><name>95</name><styleUrl>#p</styleUrl><Point><coordinates>74.838604,33.94018,0</coordinates></Point></Placemark>
<Placemark><name>80</name><styleUrl>#p</styleUrl><Point><coordinates>74.838924,33.942886,0</coordinates></Point></Placemark>
<Placemark><name>228</name><styleUrl>#p</styleUrl><Point><coordinates>74.838929,33.94018,0</coordinates></Point></Placemark>
<Placemark><name>207</name><styleUrl>#p</styleUrl><Point><coordinates>74.83893,33.939639,0</coordinates></Point></Placemark>
<Placemark><name>222</name><styleUrl>#p</styleUrl><Point><coordinates>74.839578,33.940181,0</coordinates></Point></Placemark>
<Placemark><name>141</name><styleUrl>#p</styleUrl><Point><coordinates>74.841198,33.942077,0</coordinates></Point></Placemark>
<Placemark><name>50</name><styleUrl>#p</styleUrl><Point><coordinates>74.841524,33.940995,0</coordinates></Point></Placemark>
<Placemark><name>96</name><styleUrl>#p</styleUrl><Point><coordinates>74.841851,33.939643,0</coordinates></Point></Placemark>
<Placemark><name>117</name><styleUrl>#p</styleUrl><Point><coordinates>74.843785,33.947221,0</coordinates></Point></Placemark>
<Placemark><name>25</name><styleUrl>#p</styleUrl><Point><coordinates>74.844434,33.947493,0</coordinates></Point></Placemark>
<Placemark><name>63</name><styleUrl>#p</styleUrl><Point><coordinates>74.844758,33.948034,0</coordinates></Point></Placemark>
<Placemark><name>111</name><styleUrl>#p</styleUrl><Point><coordinates>74.845409,33.946953,0</coordinates></Point></Placemark>
<Placemark><name>213</name><styleUrl>#p</styleUrl><Point><coordinates>74.845728,33.949929,0</coordinates></Point></Placemark>
<Placemark><name>192</name><styleUrl>#p</styleUrl><Point><coordinates>74.846395,33.94019,0</coordinates></Point></Placemark>
<Placemark><name>45</name><styleUrl>#p</styleUrl><Point><coordinates>74.846711,33.945331,0</coordinates></Point></Placemark>
<Placemark><name>144</name><styleUrl>#p</styleUrl><Point><coordinates>74.846729,33.93532,0</coordinates></Point></Placemark>
<Placemark><name>73</name><styleUrl>#p</styleUrl><Point><coordinates>74.847057,33.933156,0</coordinates></Point></Placemark>
<Placemark><name>35</name><styleUrl>#p</styleUrl><Point><coordinates>74.848013,33.943439,0</coordinates></Point></Placemark>
<Placemark><name>62</name><styleUrl>#p</styleUrl><Point><coordinates>74.84833,33.947768,0</coordinates></Point></Placemark>
<Placemark><name>47</name><styleUrl>#p</styleUrl><Point><coordinates>74.848335,33.944521,0</coordinates></Point></Placemark>
<Placemark><name>93</name><styleUrl>#p</styleUrl><Point><coordinates>74.848664,33.942087,0</coordinates></Point></Placemark>
<Placemark><name>234</name><styleUrl>#p</styleUrl><Point><coordinates>74.849654,33.93343,0</coordinates></Point></Placemark>
<Placemark><name>64</name><styleUrl>#p</styleUrl><Point><coordinates>74.850603,33.9475,0</coordinates></Point></Placemark>
<Placemark><name>55</name><styleUrl>#p</styleUrl><Point><coordinates>74.850608,33.944524,0</coordinates></Point></Placemark>
<Placemark><name>112</name><styleUrl>#p</styleUrl><Point><coordinates>74.850954,33.932349,0</coordinates></Point></Placemark>
<Placemark><name>19</name><styleUrl>#p</styleUrl><Point><coordinates>74.86101,33.936149,0</coordinates></Point></Placemark>
<Placemark><name>201</name><styleUrl>#p</styleUrl><Point><coordinates>74.861334,33.93669,0</coordinates></Point></Placemark>
<Placemark><name>215</name><styleUrl>#p</styleUrl><Point><coordinates>74.861984,33.93615,0</coordinates></Point></Placemark>
<Placemark><name>177</name><styleUrl>#p</styleUrl><Point><coordinates>74.848001,33.950203,0</coordinates></Point></Placemark>
<Placemark><name>88</name><styleUrl>#p</styleUrl><Point><coordinates>74.771308,33.9766,0</coordinates></Point></Placemark>
<Placemark><name>98</name><styleUrl>#p</styleUrl><Point><coordinates>74.611381,34.007585,0</coordinates></Point></Placemark>
<Placemark><name>76</name><styleUrl>#p</styleUrl><Point><coordinates>74.627948,34.008177,0</coordinates></Point></Placemark>
<Placemark><name>150</name><styleUrl>#p</styleUrl><Point><coordinates>74.6455,34.006335,0</coordinates></Point></Placemark>
<Placemark><name>142</name><styleUrl>#p</styleUrl><Point><coordinates>74.646494,34.001467,0</coordinates></Point></Placemark>
<Placemark><name>198</name><styleUrl>#p</styleUrl><Point><coordinates>74.65754,34.001499,0</coordinates></Point></Placemark>
<Placemark><name>75</name><styleUrl>#p</styleUrl><Point><coordinates>74.665328,34.003685,0</coordinates></Point></Placemark>
<Placemark><name>168</name><styleUrl>#p</styleUrl><Point><coordinates>74.666623,34.00477,0</coordinates></Point></Placemark>
<Placemark><name>17</name><styleUrl>#p</styleUrl><Point><coordinates>74.681885,34.006705,0</coordinates></Point></Placemark>
<Placemark><name>197</name><styleUrl>#p</styleUrl><Point><coordinates>74.682862,34.005896,0</coordinates></Point></Placemark>
<Placemark><name>125</name><styleUrl>#p</styleUrl><Point><coordinates>74.683508,34.00698,0</coordinates></Point></Placemark>
<Placemark><name>71</name><styleUrl>#p</styleUrl><Point><coordinates>74.683827,34.008604,0</coordinates></Point></Placemark>
<Placemark><name>51</name><styleUrl>#p</styleUrl><Point><coordinates>74.759209,34.006069,0</coordinates></Point></Placemark>
<Placemark><name>113</name><styleUrl>#p</styleUrl><Point><coordinates>74.76477,33.99201,0</coordinates></Point></Placemark>
<Placemark><name>56</name><styleUrl>#p</styleUrl><Point><coordinates>74.764774,33.990657,0</coordinates></Point></Placemark>
<Placemark><name>69</name><styleUrl>#p</styleUrl><Point><coordinates>74.769271,34.009335,0</coordinates></Point></Placemark>
<Placemark><name>78</name><styleUrl>#p</styleUrl><Point><coordinates>74.973306,34.004408,0</coordinates></Point></Placemark>
<Placemark><name>70</name><styleUrl>#p</styleUrl><Point><coordinates>74.611013,34.017053,0</coordinates></Point></Placemark>
<Placemark><name>127</name><styleUrl>#p</styleUrl><Point><coordinates>74.611338,34.017054,0</coordinates></Point></Placemark>
<Placemark><name>27</name><styleUrl>#p</styleUrl><Point><coordinates>74.612974,34.014624,0</coordinates></Point></Placemark>
<Placemark><name>32</name><styleUrl>#p</styleUrl><Point><coordinates>74.616558,34.012471,0</coordinates></Point></Placemark>
<Placemark><name>120</name><styleUrl>#p</styleUrl><Point><coordinates>74.619746,34.026009,0</coordinates></Point></Placemark>
<Placemark><name>31</name><styleUrl>#p</styleUrl><Point><coordinates>74.620715,34.027365,0</coordinates></Point></Placemark>
<Placemark><name>148</name><styleUrl>#p</styleUrl><Point><coordinates>74.62366,34.022774,0</coordinates></Point></Placemark>
<Placemark><name>103</name><styleUrl>#p</styleUrl><Point><coordinates>74.623983,34.023316,0</coordinates></Point></Placemark>
<Placemark><name>195</name><styleUrl>#p</styleUrl><Point><coordinates>74.625287,34.022238,0</coordinates></Point></Placemark>
<Placemark><name>91</name><styleUrl>#p</styleUrl><Point><coordinates>74.627877,34.024411,0</coordinates></Point></Placemark>
<Placemark><name>189</name><styleUrl>#p</styleUrl><Point><coordinates>74.639234,34.028232,0</coordinates></Point></Placemark>
<Placemark><name>30</name><styleUrl>#p</styleUrl><Point><coordinates>74.639555,34.029315,0</coordinates></Point></Placemark>
<Placemark><name>41</name><styleUrl>#p</styleUrl><Point><coordinates>74.641177,34.029861,0</coordinates></Point></Placemark>
<Placemark><name>12</name><styleUrl>#p</styleUrl><Point><coordinates>74.641503,34.029592,0</coordinates></Point></Placemark>
<Placemark><name>33</name><styleUrl>#p</styleUrl><Point><coordinates>74.653531,34.028544,0</coordinates></Point></Placemark>
<Placemark><name>38</name><styleUrl>#p</styleUrl><Point><coordinates>74.65812,34.018816,0</coordinates></Point></Placemark>
<Placemark><name>90</name><styleUrl>#p</styleUrl><Point><coordinates>74.659097,34.018278,0</coordinates></Point></Placemark>
<Placemark><name>238</name><styleUrl>#p</styleUrl><Point><coordinates>74.659773,34.011786,0</coordinates></Point></Placemark>
<Placemark><name>13</name><styleUrl>#p</styleUrl><Point><coordinates>74.670452,34.022638,0</coordinates></Point></Placemark>
<Placemark><name>49</name><styleUrl>#p</styleUrl><Point><coordinates>74.670755,34.028321,0</coordinates></Point></Placemark>
<Placemark><name>147</name><styleUrl>#p</styleUrl><Point><coordinates>74.671116,34.019122,0</coordinates></Point></Placemark>
<Placemark><name>110</name><styleUrl>#p</styleUrl><Point><coordinates>74.672745,34.018045,0</coordinates></Point></Placemark>
<Placemark><name>77</name><styleUrl>#p</styleUrl><Point><coordinates>74.685716,34.025113,0</coordinates></Point></Placemark>
<Placemark><name>109</name><styleUrl>#p</styleUrl><Point><coordinates>74.706824,34.028953,0</coordinates></Point></Placemark>
<Placemark><name>59</name><styleUrl>#p</styleUrl><Point><coordinates>74.708825,34.014077,0</coordinates></Point></Placemark>
<Placemark><name>36</name><styleUrl>#p</styleUrl><Point><coordinates>74.709152,34.013536,0</coordinates></Point></Placemark>
<Placemark><name>60</name><styleUrl>#p</styleUrl><Point><coordinates>74.605048,34.042197,0</coordinates></Point></Placemark>
<Placemark><name>233</name><styleUrl>#p</styleUrl><Point><coordinates>74.637231,34.040672,0</coordinates></Point></Placemark>
<Placemark><name>139</name><styleUrl>#p</styleUrl><Point><coordinates>74.643087,34.039337,0</coordinates></Point></Placemark>
<Placemark><name>72</name><styleUrl>#p</styleUrl><Point><coordinates>74.645062,34.03339,0</coordinates></Point></Placemark>
<Placemark><name>140</name><styleUrl>#p</styleUrl><Point><coordinates>74.645064,34.032849,0</coordinates></Point></Placemark>
<Placemark><name>154</name><styleUrl>#p</styleUrl><Point><coordinates>74.646368,34.032041,0</coordinates></Point></Placemark>
<Placemark><name>196</name><styleUrl>#p</styleUrl><Point><coordinates>74.665834,34.040212,0</coordinates></Point></Placemark>
<Placemark><name>82</name><styleUrl>#p</styleUrl><Point><coordinates>74.684714,34.032416,0</coordinates></Point></Placemark>
<Placemark><name>40</name><styleUrl>#p</styleUrl><Point><coordinates>74.69317,34.030543,0</coordinates></Point></Placemark>
</Document></kml>